{
    "links": {
        "self": "http://www.neowsapp.com/rest/v1/neo/3608726?api_key=iIulBulltgU6a56xZRHN4H3l9WmuAYTsLGpBGhQ2"
    },
    "id": "3608726",
    "neo_reference_id": "3608726",
    "name": "(2012 SW2)",
    "designation": "2012 SW2",
    "nasa_jpl_url": "http://ssd.jpl.nasa.gov/sbdb.cgi?sstr=3608726",
    "absolute_magnitude_h": 27.5,
    "estimated_diameter": {
        "kilometers": {
            "estimated_diameter_min": 0.008405334,
            "estimated_diameter_max": 0.0187948982
        },
        "meters": {
            "estimated_diameter_min": 8.4053340207,
            "estimated_diameter_max": 18.7948982439
        },
        "miles": {
            "estimated_diameter_min": 0.0052228308,
            "estimated_diameter_max": 0.0116786047
        },
        "feet": {
            "estimated_diameter_min": 27.5765560686,
            "estimated_diameter_max": 61.6630539546
        }
    },
    "is_potentially_hazardous_asteroid": false,
    "close_approach_data": [
        {
            "close_approach_date": "2012-09-19",
            "close_approach_date_full": "2012-Sep-19 14:20",
            "epoch_date_close_approach": 1348064400000,
            "relative_velocity": {
                "kilometers_per_second": "16.1717974768",
                "kilometers_per_hour": "58218.4709165239",
                "miles_per_hour": "36174.6937758812"
            },
            "miss_distance": {
                "astronomical": "0.0046965467",
                "lunar": "1.8269566663",
                "kilometers": "702593.382675529",
                "miles": "436571.2839151402"
            },
            "orbiting_body": "Earth"
        },
        {
            "close_approach_date": "2012-09-19",
            "close_approach_date_full": "2012-Sep-19 16:59",
            "epoch_date_close_approach": 1348073940000,
            "relative_velocity": {
                "kilometers_per_second": "17.1336516363",
                "kilometers_per_hour": "61681.1458907243",
                "miles_per_hour": "38326.265345267"
            },
            "miss_distance": {
                "astronomical": "0.0050555502",
                "lunar": "1.9666090278",
                "kilometers": "756299.541598074",
                "miles": "469942.7436144612"
            },
            "orbiting_body": "Moon"
        }
    ],
    "orbital_data": {
        "orbit_id": "6",
        "orbit_determination_date": "2017-04-06 08:48:58",
        "first_observation_date": "2012-09-16",
        "last_observation_date": "2012-09-19",
        "data_arc_in_days": 3,
        "observations_used": 31,
        "orbit_uncertainty": "7",
        "minimum_orbit_intersection": ".00519497",
        "jupiter_tisserand_invariant": "3.183",
        "epoch_osculation": "2459000.5",
        "eccentricity": ".678943617882813",
        "semi_major_axis": "2.372574591995986",
        "inclination": "3.236964979416209",
        "ascending_node_longitude": "180.8905023413098",
        "orbital_period": "1334.837010581816",
        "perihelion_distance": ".7617302148093923",
        "perihelion_argument": "240.9319759509347",
        "aphelion_distance": "3.983418969182579",
        "perihelion_time": "2458913.785123080870",
        "mean_anomaly": "23.38664229671003",
        "mean_motion": ".2696958483666007",
        "equinox": "J2000",
        "orbit_class": {
            "orbit_class_type": "APO",
            "orbit_class_description": "Near-Earth asteroid orbits which cross the Earth’s orbit similar to that of 1862 Apollo",
            "orbit_class_range": "a (semi-major axis) > 1.0 AU; q (perihelion) < 1.017 AU"
        }
    },
    "is_sentry_object": false
}